[{"OBJECT_NAME":"GJZ 01","OBJECT_ID":"2024-238A","EPOCH":"2026-03-09T22:58:31.569312","MEAN_MOTION":13.75204151,"ECCENTRICITY":0.00225262,"INCLINATION":59.9119,"RA_OF_ASC_NODE":227.0135,"ARG_OF_PERICENTER":155.3106,"MEAN_ANOMALY":204.8985,"EPHEMERIS_TYPE":0,"CLASSIFICATION_TYPE":"U","NORAD_CAT_ID":62290,"ELEMENT_SET_NO":999,"REV_AT_EPOCH":6195,"BSTAR":0.00017039412,"MEAN_MOTION_DOT":4.5e-7,"MEAN_MOTION_DDOT":0},{"OBJECT_NAME":"CZ-6A DEB","OBJECT_ID":"2022-151GN","EPOCH":"2026-03-09T20:50:37.315680","MEAN_MOTION":14.09055506,"ECCENTRICITY":0.01513844,"INCLINATION":98.7038,"RA_OF_ASC_NODE":33.7671,"ARG_OF_PERICENTER":227.8702,"MEAN_ANOMALY":130.9522,"EPHEMERIS_TYPE":0,"CLASSIFICATION_TYPE":"U","NORAD_CAT_ID":54462,"ELEMENT_SET_NO":999,"REV_AT_EPOCH":16977,"BSTAR":0.0019877794,"MEAN_MOTION_DOT":3.789e-5,"MEAN_MOTION_DDOT":0}]
